NORAD_CAT_ID,OBJECT_NAME,OBJECT_TYPE,EPOCH,MEAN_MOTION,ECCENTRICITY,INCLINATION,RA_OF_ASC_NODE,ARG_OF_PERICENTER,MEAN_ANOMALY,BSTAR,MEAN_MOTION_DOT,MEAN_MOTION_DDOT,TLE_LINE0,TLE_LINE1,TLE_LINE2,SEMIMAJOR_AXIS,PERIOD,APOGEE,PERIGEE,DECAYED
52601.0,STARLINK-4027,PAYLOAD,2024-03-10 23:02:08,15.08850351,0.0001058,53.2184,310.5202,97.7942,262.3171,-0.00018066,-3.163e-05,0.0,0 STARLINK-4027,1 52601U 22052D   24070.95982023 -.00003163  00000-0 -18066-3 0  9995,2 52601  53.2184 310.5202 0001058  97.7942 262.3171 15.08850351101644,6917.849,95.437,540.446,538.982,0.0
52601.0,STARLINK-4027,PAYLOAD,2024-03-11 14:56:00,15.08836576,0.0001205,53.2179,307.5456,90.2205,269.8925,7.5741e-05,9.18e-06,0.0,0 STARLINK-4027,1 52601U 22052D   24071.62222319  .00000918  00000-0  75741-4 0  9992,2 52601  53.2179 307.5456 0001205  90.2205 269.8925 15.08836576101742,6917.891,95.438,540.589,538.922,0.0
52601.0,STARLINK-4027,PAYLOAD,2024-03-12 14:46:47,15.08828758,0.0001374,53.2172,303.0843,95.9063,264.2086,0.00022383,3.275e-05,0.0,0 STARLINK-4027,1 52601U 22052D   24072.61582686  .00003275  00000-0  22383-3 0  9990,2 52601  53.2172 303.0843 0001374  95.9063 264.2086 15.08828758101893,6917.915,95.438,540.73,538.829,0.0
52601.0,STARLINK-4027,PAYLOAD,2024-03-13 00:19:05,15.0884189,0.000133,53.2168,301.3,92.9863,267.1281,0.00010028,1.308e-05,0.0,0 STARLINK-4027,1 52601U 22052D   24073.01326195  .00001308  00000-0  10028-3 0  9994,2 52601  53.2168 301.3000 0001330  92.9863 267.1281 15.08841890101522,6917.875,95.437,540.66,538.82,0.0
52601.0,STARLINK-4027,PAYLOAD,2024-03-13 08:16:01,15.08839696,0.0001348,53.2164,299.8126,88.1569,271.9577,5.3942e-05,5.71e-06,0.0,0 STARLINK-4027,1 52601U 22052D   24073.34446454  .00000571  00000-0  53942-4 0  9995,2 52601  53.2164 299.8126 0001348  88.1569 271.9577 15.08839696102003,6917.881,95.438,540.679,538.814,0.0
52601.0,STARLINK-4027,PAYLOAD,2024-03-13 22:34:29,15.08844728,0.0001278,53.2176,297.1344,88.9312,271.1827,5.5792e-05,6e-06,0.0,0 STARLINK-4027,1 52601U 22052D   24073.94062124  .00000600  00000-0  55792-4 0  9997,2 52601  53.2176 297.1344 0001278  88.9312 271.1827 15.08844728102096,6917.866,95.437,540.615,538.847,0.0
52601.0,STARLINK-4027,PAYLOAD,2024-03-14 00:09:52,15.08848702,0.0001455,53.2159,296.8374,89.9857,270.1302,0.00012141,1.645e-05,0.0,0 STARLINK-4027,1 52601U 22052D   24074.00685708  .00001645  00000-0  12141-3 0  9994,2 52601  53.2159 296.8374 0001455  89.9857 270.1302 15.08848702102103,6917.854,95.437,540.725,538.712,0.0
52601.0,STARLINK-4027,PAYLOAD,2024-03-14 08:06:48,15.08833082,0.0001109,53.2169,295.3481,92.1161,267.9958,0.00011984,1.62e-05,0.0,0 STARLINK-4027,1 52601U 22052D   24074.33806446  .00001620  00000-0  11984-3 0  9991,2 52601  53.2169 295.3481 0001109  92.1161 267.9958 15.08833082101720,6917.902,95.438,540.534,538.999,0.0
52601.0,STARLINK-4027,PAYLOAD,2024-03-14 20:49:53,15.08845577,0.0001083,53.2178,292.9687,103.8419,256.2694,-4.0885e-05,-9.39e-06,0.0,0 STARLINK-4027,1 52601U 22052D   24074.86798210 -.00000939  00000-0 -40885-4 0  9995,2 52601  53.2178 292.9687 0001083 103.8419 256.2694 15.08845577102235,6917.863,95.437,540.478,538.979,0.0
52601.0,STARLINK-4027,PAYLOAD,2024-03-15 00:00:39,15.08846416,0.0001075,53.2173,292.3735,106.3819,253.7291,-3.2123e-05,-7.99e-06,0.0,0 STARLINK-4027,1 52601U 22052D   24075.00046038 -.00000799  00000-0 -32123-4 0  9996,2 52601  53.2173 292.3735 0001075 106.3819 253.7291 15.08846416101823,6917.861,95.437,540.469,538.982,0.0
52601.0,STARLINK-4027,PAYLOAD,2024-03-15 23:51:27,15.08826005,0.0001499,53.2174,287.9124,103.7351,256.3808,0.00030279,4.532e-05,0.0,0 STARLINK-4027,1 52601U 22052D   24075.99406268  .00004532  00000-0  30279-3 0  9995,2 52601  53.2174 287.9124 0001499 103.7351 256.3808 15.08826005101979,6917.923,95.438,540.825,538.751,0.0
52601.0,STARLINK-4027,PAYLOAD,2024-03-16 20:31:28,15.0883736,0.0001529,53.2179,284.0474,89.068,271.0488,2.634e-05,1.31e-06,0.0,0 STARLINK-4027,1 52601U 22052D   24076.85518624  .00000131  00000-0  26340-4 0  9997,2 52601  53.2179 284.0474 0001529  89.0680 271.0488 15.08837360102532,6917.888,95.438,540.811,538.696,0.0
52601.0,STARLINK-4027,PAYLOAD,2024-03-16 23:42:14,15.08841367,0.0001506,53.2174,283.4501,105.5783,254.5376,-2.6783e-05,-7.14e-06,0.0,0 STARLINK-4027,1 52601U 22052D   24076.98766431 -.00000714  00000-0 -26783-4 0  9992,2 52601  53.2174 283.4501 0001506 105.5783 254.5376 15.08841367102550,6917.876,95.437,540.783,538.699,0.0
52601.0,STARLINK-4027,PAYLOAD,2024-03-17 20:22:14,15.08836157,0.0001509,53.2172,279.5851,102.7994,257.3166,8.2399e-05,1.024e-05,0.0,0 STARLINK-4027,1 52601U 22052D   24077.84878445  .00001024  00000-0  82399-4 0  9995,2 52601  53.2172 279.5851 0001509 102.7994 257.3166 15.08836157102254,6917.892,95.438,540.801,538.713,0.0
52601.0,STARLINK-4027,PAYLOAD,2024-03-18 13:51:29,15.0883523,0.000148,53.2171,276.3145,99.669,260.4469,2.5866e-05,1.24e-06,0.0,0 STARLINK-4027,1 52601U 22052D   24078.57742974  .00000124  00000-0  25866-4 0  9999,2 52601  53.2171 276.3145 0001480  99.6690 260.4469 15.08835230102790,6917.895,95.438,540.784,538.736,0.0
52601.0,STARLINK-4027,PAYLOAD,2024-03-18 23:23:48,15.08834852,0.0001473,53.217,274.5305,100.3427,259.7731,1.7859e-05,-4e-08,0.0,0 STARLINK-4027,1 52601U 22052D   24078.97487141 -.00000004  00000-0  17859-4 0  9996,2 52601  53.2170 274.5305 0001473 100.3427 259.7731 15.08834852102429,6917.896,95.438,540.78,538.742,0.0
52601.0,STARLINK-4027,PAYLOAD,2024-03-19 20:03:48,15.08846348,0.000145,53.2168,270.6669,85.8988,274.217,0.00012276,1.667e-05,0.0,0 STARLINK-4027,1 52601U 22052D   24079.83598325  .00001667  00000-0  12276-3 0  9991,2 52601  53.2168 270.6669 0001450  85.8988 274.2170 15.08846348102556,6917.861,95.437,540.729,538.723,0.0
52601.0,STARLINK-4027,PAYLOAD,2024-03-20 19:54:36,15.08837651,0.0001362,53.2182,266.2056,80.8843,279.2304,4.9486e-05,5e-06,0.0,0 STARLINK-4027,1 52601U 22052D   24080.82959404  .00000500  00000-0  49486-4 0  9990,2 52601  53.2182 266.2056 0001362  80.8843 279.2304 15.08837651102708,6917.888,95.438,540.695,538.81,0.0
52601.0,STARLINK-4027,PAYLOAD,2024-03-21 11:48:28,15.08840904,0.0001597,53.2174,263.2358,84.4823,275.6351,1.1475e-05,-1.05e-06,0.0,0 STARLINK-4027,1 52601U 22052D   24081.49199447 -.00000105  00000-0  11475-4 0  9996,2 52601  53.2174 263.2358 0001597  84.4823 275.6351 15.08840904103235,6917.878,95.437,540.847,538.638,0.0
52601.0,STARLINK-4027,PAYLOAD,2024-03-21 19:45:23,15.0884857,0.0001231,53.2169,261.75,79.6542,280.4589,6.1486e-05,6.91e-06,0.0,0 STARLINK-4027,1 52601U 22052D   24081.82318823  .00000691  00000-0  61486-4 0  9990,2 52601  53.2169 261.7500 0001231  79.6542 280.4589 15.08848570102851,6917.854,95.437,540.571,538.868,0.0
52601.0,STARLINK-4027,PAYLOAD,2024-03-22 11:39:15,15.08842799,0.0001381,53.2171,258.777,83.1928,276.9221,0.00011811,1.592e-05,0.0,0 STARLINK-4027,1 52601U 22052D   24082.48559038  .00001592  00000-0  11811-3 0  9995,2 52601  53.2171 258.7770 0001381  83.1928 276.9221 15.08842799102954,6917.872,95.437,540.692,538.781,0.0
52601.0,STARLINK-4027,PAYLOAD,2024-03-22 18:00:47,15.08847565,0.0001321,53.2165,257.5869,95.1435,264.9708,0.00012814,1.752e-05,0.0,0 STARLINK-4027,1 52601U 22052D   24082.75054621  .00001752  00000-0  12814-3 0  9995,2 52601  53.2165 257.5869 0001321  95.1435 264.9708 15.08847565103429,6917.857,95.437,540.636,538.808,0.0
52601.0,STARLINK-4027,PAYLOAD,2024-03-23 21:02:20,15.08846943,0.000142,53.2153,252.5287,82.6263,277.4891,0.00011499,1.543e-05,0.0,0 STARLINK-4027,1 52601U 22052D   24083.87662981  .00001543  00000-0  11499-3 0  9999,2 52601  53.2153 252.5287 0001420  82.6263 277.4891 15.08846943103167,6917.859,95.437,540.707,538.742,0.0
52601.0,STARLINK-4027,PAYLOAD,2024-03-24 11:20:49,15.08838772,0.0001582,53.216,249.848,97.9424,262.1748,0.00010769,1.426e-05,0.0,0 STARLINK-4027,1 52601U 22052D   24084.47279391  .00001426  00000-0  10769-3 0  9994,2 52601  53.2160 249.8480 0001582  97.9424 262.1748 15.08838772103259,6917.884,95.438,540.844,538.655,0.0
52601.0,STARLINK-4027,PAYLOAD,2024-03-24 14:31:35,15.08846124,0.0001471,53.2153,249.2587,92.6174,267.4987,8.2405e-05,1.024e-05,0.0,0 STARLINK-4027,1 52601U 22052D   24084.60526921  .00001024  00000-0  82405-4 0  9994,2 52601  53.2153 249.2587 0001471  92.6174 267.4987 15.08846124103707,6917.862,95.437,540.744,538.709,0.0
52601.0,STARLINK-4027,PAYLOAD,2024-03-24 17:42:21,15.08851357,0.0001506,53.2157,248.6647,84.6565,275.4599,0.00018566,2.669e-05,0.0,0 STARLINK-4027,1 52601U 22052D   24084.73774718  .00002669  00000-0  18566-3 0  9999,2 52601  53.2157 248.6647 0001506  84.6565 275.4599 15.08851357103291,6917.846,95.437,540.753,538.669,0.0
52601.0,STARLINK-4027,PAYLOAD,2024-03-25 11:11:36,15.08842901,0.0001564,53.2163,245.3928,78.6314,281.4854,8.6353e-05,1.087e-05,0.0,0 STARLINK-4027,1 52601U 22052D   24085.46639415  .00001087  00000-0  86353-4 0  9997,2 52601  53.2163 245.3928 0001564  78.6314 281.4854 15.08842901103402,6917.872,95.437,540.818,538.655,0.0
52601.0,STARLINK-4027,PAYLOAD,2024-03-25 17:33:08,15.08852158,0.000126,53.2152,244.2028,78.4371,281.6762,0.00020186,2.927e-05,0.0,0 STARLINK-4027,1 52601U 22052D   24085.73134776  .00002927  00000-0  20186-3 0  9992,2 52601  53.2152 244.2028 0001260  78.4371 281.6762 15.08852158103442,6917.843,95.437,540.58,538.837,0.0
52601.0,STARLINK-4027,PAYLOAD,2024-03-26 11:02:23,15.0883235,0.0001407,53.2165,240.9314,81.2004,278.9148,-9.4137e-05,-1.785e-05,0.0,0 STARLINK-4027,1 52601U 22052D   24086.45999819 -.00001785  00000-0 -94137-4 0  9990,2 52601  53.2165 240.9314 0001407  81.2004 278.9148 15.08832350103556,6917.904,95.438,540.742,538.795,0.0
52601.0,STARLINK-4027,PAYLOAD,2024-03-26 14:13:10,15.08827985,0.0001405,53.2164,240.336,81.1727,278.9424,-0.00015301,-2.721e-05,0.0,0 STARLINK-4027,1 52601U 22052D   24086.59248055 -.00002721  00000-0 -15301-3 0  9990,2 52601  53.2164 240.3360 0001405  81.1727 278.9424 15.08827985104005,6917.917,95.438,540.754,538.81,0.0
